NORAD_CAT_ID,OBJECT_NAME,OBJECT_TYPE,EPOCH,MEAN_MOTION,ECCENTRICITY,INCLINATION,RA_OF_ASC_NODE,ARG_OF_PERICENTER,MEAN_ANOMALY,BSTAR,MEAN_MOTION_DOT,MEAN_MOTION_DDOT,TLE_LINE0,TLE_LINE1,TLE_LINE2,SEMIMAJOR_AXIS,PERIOD,APOGEE,PERIGEE,DECAYED
53923.0,STARLINK-5004,PAYLOAD,2023-01-30 21:36:33,15.08835135,0.0001144,53.2185,3.715,111.4395,248.6719,-3.5593e-05,-8.54e-06,0.0,0 STARLINK-5004,1 53923U 22119AP  23030.90038730 -.00000854  00000-0 -35593-4 0  9993,2 53923  53.2185   3.7150 0001144 111.4395 248.6719 15.08835135 20668,6917.895,95.438,540.552,538.969,0.0
53923.0,STARLINK-5004,PAYLOAD,2023-01-31 07:08:51,15.08845073,0.0001204,53.2184,1.9306,116.2278,243.8838,5.4761e-05,5.84e-06,0.0,0 STARLINK-5004,1 53923U 22119AP  23031.29781771  .00000584  00000-0  54761-4 0  9992,2 53923  53.2184   1.9306 0001204 116.2278 243.8838 15.08845073 20728,6917.865,95.437,540.563,538.897,0.0
53923.0,STARLINK-5004,PAYLOAD,2023-01-31 16:41:10,15.08838743,0.0001038,53.2181,0.1457,93.7707,266.3404,9.0485e-06,-1.44e-06,0.0,0 STARLINK-5004,1 53923U 22119AP  23031.69526359 -.00000144  00000-0  90485-5 0  9992,2 53923  53.2181   0.1457 0001038  93.7707 266.3404 15.08838743 20369,6917.884,95.438,540.467,539.031,0.0
53923.0,STARLINK-5004,PAYLOAD,2023-02-01 03:48:52,15.08842742,0.0001437,53.2181,358.0636,117.5544,242.5594,0.00012245,1.662e-05,0.0,0 STARLINK-5004,1 53923U 22119AP  23032.15893628  .00001662  00000-0  12245-3 0  9991,2 53923  53.2181 358.0636 0001437 117.5544 242.5594 15.08842742 20438,6917.872,95.437,540.731,538.743,0.0
53923.0,STARLINK-5004,PAYLOAD,2023-02-01 05:24:15,15.08847679,0.0001308,53.218,357.7664,109.7217,250.3916,9.1451e-05,1.168e-05,0.0,0 STARLINK-5004,1 53923U 22119AP  23032.22517429  .00001168  00000-0  91451-4 0  9999,2 53923  53.2180 357.7664 0001308 109.7217 250.3916 15.08847679 20867,6917.857,95.437,540.627,538.817,0.0
53923.0,STARLINK-5004,PAYLOAD,2023-02-02 03:39:39,15.08840691,0.0001274,53.2189,353.6051,90.8319,269.2819,-2.811e-05,-7.35e-06,0.0,0 STARLINK-5004,1 53923U 22119AP  23033.15254395 -.00000735  00000-0 -28110-4 0  9995,2 53923  53.2189 353.6051 0001274  90.8319 269.2819 15.08840691 20583,6917.878,95.438,540.625,538.862,0.0
53923.0,STARLINK-5004,PAYLOAD,2023-02-03 03:30:25,15.08850284,0.0001159,53.219,349.1455,93.5843,266.5282,6.6077e-05,7.64e-06,0.0,0 STARLINK-5004,1 53923U 22119AP  23034.14613193  .00000764  00000-0  66077-4 0  9994,2 53923  53.2190 349.1455 0001159  93.5843 266.5282 15.08850284 20737,6917.849,95.437,540.516,538.912,0.0
53923.0,STARLINK-5004,PAYLOAD,2023-02-03 06:41:11,15.08854503,0.0001201,53.2186,348.5498,104.4416,255.671,6.9506e-05,8.19e-06,0.0,0 STARLINK-5004,1 53923U 22119AP  23034.27860775  .00000819  00000-0  69506-4 0  9999,2 53923  53.2186 348.5498 0001201 104.4416 255.6710 15.08854503 21170,6917.836,95.437,540.532,538.87,0.0
53923.0,STARLINK-5004,PAYLOAD,2023-02-04 20:50:28,15.088392,0.0001112,53.2188,341.4152,82.7136,277.3983,-7.3315e-05,-1.454e-05,0.0,0 STARLINK-5004,1 53923U 22119AP  23035.86838608 -.00001454  00000-0 -73315-4 0  9996,2 53923  53.2188 341.4152 0001112  82.7136 277.3983 15.08839200 21416,6917.883,95.438,540.517,538.979,0.0
53923.0,STARLINK-5004,PAYLOAD,2023-02-05 03:12:00,15.08846333,0.0001089,53.219,340.2262,81.7604,278.3512,-7.3276e-06,-4.04e-06,0.0,0 STARLINK-5004,1 53923U 22119AP  23036.13333875 -.00000404  00000-0 -73276-5 0  9994,2 53923  53.2190 340.2262 0001089  81.7604 278.3512 15.08846333 21032,6917.861,95.437,540.479,538.973,0.0
53923.0,STARLINK-5004,PAYLOAD,2023-02-06 03:02:48,15.08837642,0.0001002,53.2186,335.7656,84.7232,275.3874,3.6559e-05,2.94e-06,0.0,0 STARLINK-5004,1 53923U 22119AP  23037.12694574  .00000294  00000-0  36559-4 0  9997,2 53923  53.2186 335.7656 0001002  84.7232 275.3874 15.08837642 21185,6917.888,95.438,540.446,539.059,0.0
53923.0,STARLINK-5004,PAYLOAD,2023-02-06 07:48:57,15.08844099,0.0001098,53.2185,334.8728,87.7146,272.3971,8.0157e-05,9.88e-06,0.0,0 STARLINK-5004,1 53923U 22119AP  23037.32566002  .00000988  00000-0  80157-4 0  9996,2 53923  53.2185 334.8728 0001098  87.7146 272.3971 15.08844099 21219,6917.868,95.437,540.492,538.973,0.0
53923.0,STARLINK-5004,PAYLOAD,2023-02-06 14:10:30,15.08836754,0.0001276,53.2184,333.6838,91.5977,268.5161,3.3181e-05,2.4e-06,0.0,0 STARLINK-5004,1 53923U 22119AP  23037.59062574  .00000240  00000-0  33181-4 0  9996,2 53923  53.2184 333.6838 0001276  91.5977 268.5161 15.08836754 21251,6917.89,95.438,540.638,538.873,0.0
53923.0,STARLINK-5004,PAYLOAD,2023-02-07 02:53:34,15.08846251,9.59e-05,53.2184,331.3042,83.7512,276.3589,5.0262e-05,5.12e-06,0.0,0 STARLINK-5004,1 53923U 22119AP  23038.12054045  .00000512  00000-0  50262-4 0  9991,2 53923  53.2184 331.3042 0000959  83.7512 276.3589 15.08846251 21331,6917.861,95.437,540.39,539.063,0.0
53923.0,STARLINK-5004,PAYLOAD,2023-02-07 04:28:57,15.08851355,0.000112,53.2181,331.0043,115.8736,244.2372,8.7258e-05,1.102e-05,0.0,0 STARLINK-5004,1 53923U 22119AP  23038.18677406  .00001102  00000-0  87258-4 0  9990,2 53923  53.2181 331.0043 0001120 115.8736 244.2372 15.08851355 21348,6917.846,95.437,540.485,538.936,0.0
53923.0,STARLINK-5004,PAYLOAD,2023-02-08 02:44:21,15.08856957,9.89e-05,53.219,326.8433,82.6253,277.4852,0.00011045,1.471e-05,0.0,0 STARLINK-5004,1 53923U 22119AP  23039.11413224  .00001471  00000-0  11045-3 0  9999,2 53923  53.2190 326.8433 0000989  82.6253 277.4852 15.08856957 21906,6917.829,95.436,540.378,539.009,0.0
53923.0,STARLINK-5004,PAYLOAD,2023-02-08 13:52:04,15.08837885,0.0001184,53.2178,324.7622,92.9732,267.1395,-1.1399e-05,-4.69e-06,0.0,0 STARLINK-5004,1 53923U 22119AP  23039.57782635 -.00000469  00000-0 -11399-4 0  9995,2 53923  53.2178 324.7622 0001184  92.9732 267.1395 15.08837885 21551,6917.887,95.438,540.571,538.933,0.0
53923.0,STARLINK-5004,PAYLOAD,2023-02-09 00:59:45,15.0884432,0.0001148,53.2183,322.6813,73.7389,286.3729,6.5562e-05,7.56e-06,0.0,0 STARLINK-5004,1 53923U 22119AP  23040.04150216  .00000756  00000-0  65562-4 0  9991,2 53923  53.2183 322.6813 0001148  73.7389 286.3729 15.08844320 21625,6917.867,95.437,540.526,538.938,0.0
53923.0,STARLINK-5004,PAYLOAD,2023-02-09 04:10:31,15.08851062,0.0001253,53.2195,322.0801,101.9555,258.1578,-5.9928e-06,-3.83e-06,0.0,0 STARLINK-5004,1 53923U 22119AP  23040.17397806 -.00000383  00000-0 -59928-5 0  9991,2 53923  53.2195 322.0801 0001253 101.9555 258.1578 15.08851062 22064,6917.847,95.437,540.578,538.845,0.0
53923.0,STARLINK-5004,PAYLOAD,2023-02-10 00:50:33,15.0884174,0.0001163,53.22,318.2196,55.7942,304.3161,-0.00012314,-2.247e-05,0.0,0 STARLINK-5004,1 53923U 22119AP  23041.03511143 -.00002247  00000-0 -12314-3 0  9996,2 53923  53.2200 318.2196 0001163  55.7942 304.3161 15.08841740 21772,6917.875,95.437,540.545,538.936,0.0
53923.0,STARLINK-5004,PAYLOAD,2023-02-10 11:58:14,15.08852861,0.0001294,53.2178,316.1396,71.6427,288.4706,-4.0067e-05,-9.26e-06,0.0,0 STARLINK-5004,1 53923U 22119AP  23041.49877950 -.00000926  00000-0 -40067-4 0  9996,2 53923  53.2178 316.1396 0001294  71.6427 288.4706 15.08852861 21846,6917.841,95.437,540.601,538.811,0.0
53923.0,STARLINK-5004,PAYLOAD,2023-02-10 19:55:11,15.08834565,0.0001639,53.2169,314.6542,68.9569,291.1598,9.4861e-05,1.222e-05,0.0,0 STARLINK-5004,1 53923U 22119AP  23041.82998848  .00001222  00000-0  94861-4 0  9992,2 53923  53.2169 314.6542 0001639  68.9569 291.1598 15.08834565 22315,6917.897,95.438,540.896,538.628,0.0
53923.0,STARLINK-5004,PAYLOAD,2023-02-11 00:41:19,15.08847831,0.000115,53.2183,313.7603,79.625,280.4872,0.000169,2.403e-05,0.0,0 STARLINK-5004,1 53923U 22119AP  23042.02869620  .00002403  00000-0  16900-3 0  9999,2 53923  53.2183 313.7603 0001150  79.6250 280.4872 15.08847831 22342,6917.856,95.437,540.517,538.926,0.0
53923.0,STARLINK-5004,PAYLOAD,2023-02-11 18:10:35,15.08836122,0.0001223,53.217,310.4907,75.776,284.3367,-9.8044e-05,-1.848e-05,0.0,0 STARLINK-5004,1 53923U 22119AP  23042.75735594 -.00001848  00000-0 -98044-4 0  9995,2 53923  53.2170 310.4907 0001223  75.7760 284.3367 15.08836122 22032,6917.892,95.438,540.603,538.911,0.0
53923.0,STARLINK-5004,PAYLOAD,2023-02-12 00:32:07,15.08844055,0.0001045,53.2174,309.3004,80.8667,279.2443,-2.747e-05,-7.25e-06,0.0,0 STARLINK-5004,1 53923U 22119AP  23043.02230800 -.00000725  00000-0 -27470-4 0  9994,2 53923  53.2174 309.3004 0001045  80.8667 279.2443 15.08844055 22072,6917.868,95.437,540.456,539.01,0.0
53923.0,STARLINK-5004,PAYLOAD,2023-02-12 10:04:26,15.08837038,0.0001454,53.2181,307.5165,82.4499,277.6658,-6.4436e-05,-1.313e-05,0.0,0 STARLINK-5004,1 53923U 22119AP  23043.41975308 -.00001313  00000-0 -64436-4 0  9993,2 53923  53.2181 307.5165 0001454  82.4499 277.6658 15.08837038 22559,6917.889,95.438,540.76,538.749,0.0
53923.0,STARLINK-5004,PAYLOAD,2023-02-12 18:01:23,15.08824463,0.0001644,53.2184,306.0306,96.5544,263.5635,-0.00012953,-2.348e-05,0.0,0 STARLINK-5004,1 53923U 22119AP  23043.75096576 -.00002348  00000-0 -12953-3 0  9996,2 53923  53.2184 306.0306 0001644  96.5544 263.5635 15.08824463 22187,6917.928,95.439,540.93,538.656,0.0
53923.0,STARLINK-5004,PAYLOAD,2023-02-13 03:33:41,15.08838987,0.0001261,53.2181,304.2437,78.2025,281.9109,-8.203e-05,-1.593e-05,0.0,0 STARLINK-5004,1 53923U 22119AP  23044.14839731 -.00001593  00000-0 -82030-4 0  9993,2 53923  53.2181 304.2437 0001261  78.2025 281.9109 15.08838987 22248,6917.883,95.438,540.621,538.876,0.0
53923.0,STARLINK-5004,PAYLOAD,2023-02-13 09:55:14,15.08835398,0.000136,53.2177,303.0543,77.9888,282.1257,-0.00014259,-2.556e-05,0.0,0 STARLINK-5004,1 53923U 22119AP  23044.41336252 -.00002556  00000-0 -14259-3 0  9990,2 53923  53.2177 303.0543 0001360  77.9888 282.1257 15.08835398 22702,6917.894,95.438,540.7,538.819,0.0
53923.0,STARLINK-5004,PAYLOAD,2023-02-13 17:52:10,15.08826328,9.03e-05,53.2163,301.5677,73.6544,286.4548,2.2377e-05,6.8e-07,0.0,0 STARLINK-5004,1 53923U 22119AP  23044.74456669  .00000068  00000-0  22377-4 0  9996,2 53923  53.2163 301.5677 0000903  73.6544 286.4548 15.08826328 22334,6917.922,95.438,540.412,539.162,0.0
